{"type": "FeatureCollection", "features": [ {"type": "Feature", "properties": {"norad_id": 38055, "name": "COSMOS 2251 DEB", "group": "cosmos-2251-debris", "lat": -29.664442068674862, "lon": 167.5137782026719, "alt_km": 602.8966093900981, "timestamp": "2025-12-27T22:26:48.998464+00:00", "meta": {"OBJECT_NAME": "COSMOS 2251 DEB", "OBJECT_ID": "1993-036BRM", "EPOCH": "2025-12-26T04:52:48.177696", "MEAN_MOTION": 14.77111908, "ECCENTRICITY": 0.00661826, "INCLINATION": 74.0079, "RA_OF_ASC_NODE": 180.3155, "ARG_OF_PERICENTER": 305.0228, "MEAN_ANOMALY": 177.6767, "EPHEMERIS_TYPE": 0, "CLASSIFICATION_TYPE": "U", "NORAD_CAT_ID": 38055, "ELEMENT_SET_NO": 999, "REV_AT_EPOCH": 60881, "BSTAR": 0.00074914233, "MEAN_MOTION_DOT": 5.457e-05, "MEAN_MOTION_DDOT": 0}, "tle": {"line1": "1 38055U 93036BRM 25360.20333539  .00005457  00000+0  74914-3 0  9994", "line2": "2 38055  74.0079 180.3155 0066182 305.0228 177.6767 14.77111908608819"}}, "geometry": {"type": "Point", "coordinates": [167.5137782026719, -29.664442068674862]}}, {"type": "Feature", "properties": {"norad_id": 38060, "name": "COSMOS 2251 DEB", "group": "cosmos-2251-debris", "lat": -14.212059252357047, "lon": 90.29713777562041, "alt_km": 725.934768530904, "timestamp": "2025-12-27T22:26:48.998474+00:00", "meta": {"OBJECT_NAME": "COSMOS 2251 DEB", "OBJECT_ID": "1993-036BRS", "EPOCH": "2025-12-25T12:09:27.527040", "MEAN_MOTION": 14.63928646, "ECCENTRICITY": 0.0058702, "INCLINATION": 74.0433, "RA_OF_ASC_NODE": 270.8015, "ARG_OF_PERICENTER": 13.4821, "MEAN_ANOMALY": 346.7897, "EPHEMERIS_TYPE": 0, "CLASSIFICATION_TYPE": "U", "NORAD_CAT_ID": 38060, "ELEMENT_SET_NO": 999, "REV_AT_EPOCH": 72151, "BSTAR": 0.00055069, "MEAN_MOTION_DOT": 2.924e-05, "MEAN_MOTION_DDOT": 0}, "tle": {"line1": "1 38060U 93036BRS 25359.50656860  .00002924  00000+0  55069-3 0  9992", "line2": "2 38060  74.0433 270.8015 0058702  13.4821 346.7897 14.63928646721513"}}, "geometry": {"type": "Point", "coordinates": [90.29713777562041, -14.212059252357047]}}, {"type": "Feature", "properties": {"norad_id": 38062, "name": "COSMOS 2251 DEB", "group": "cosmos-2251-debris", "lat": 66.84183262727649, "lon": -58.127028916593346, "alt_km": 568.0006973471645, "timestamp": "2025-12-27T22:26:48.998483+00:00", "meta": {"OBJECT_NAME": "COSMOS 2251 DEB", "OBJECT_ID": "1993-036BRU", "EPOCH": "2025-12-20T12:40:12.328608", "MEAN_MOTION": 14.95206267, "ECCENTRICITY": 0.00129431, "INCLINATION": 74.0088, "RA_OF_ASC_NODE": 274.7346, "ARG_OF_PERICENTER": 42.7602, "MEAN_ANOMALY": 131.9089, "EPHEMERIS_TYPE": 0, "CLASSIFICATION_TYPE": "U", "NORAD_CAT_ID": 38062, "ELEMENT_SET_NO": 999, "REV_AT_EPOCH": 63146, "BSTAR": 0.0014745207, "MEAN_MOTION_DOT": 0.00016237, "MEAN_MOTION_DDOT": 0}, "tle": {"line1": "1 38062U 93036BRU 25354.52792047  .00016237  00000+0  14745-2 0  9996", "line2": "2 38062  74.0088 274.7346 0012943  42.7602 131.9089 14.95206267631464"}}, "geometry": {"type": "Point", "coordinates": [-58.127028916593346, 66.84183262727649]}}, {"type": "Feature", "properties": {"norad_id": 38064, "name": "COSMOS 2251 DEB", "group": "cosmos-2251-debris", "lat": 28.362106768087145, "lon": 104.18322945348066, "alt_km": 736.297928323721, "timestamp": "2025-12-27T22:26:48.998493+00:00", "meta": {"OBJECT_NAME": "COSMOS 2251 DEB", "OBJECT_ID": "1993-036BRW", "EPOCH": "2025-12-27T05:49:29.069184", "MEAN_MOTION": 14.56424107, "ECCENTRICITY": 0.0046908, "INCLINATION": 74.0229, "RA_OF_ASC_NODE": 96.6004, "ARG_OF_PERICENTER": 213.725, "MEAN_ANOMALY": 146.0928, "EPHEMERIS_TYPE": 0, "CLASSIFICATION_TYPE": "U", "NORAD_CAT_ID": 38064, "ELEMENT_SET_NO": 999, "REV_AT_EPOCH": 72076, "BSTAR": 0.0011074, "MEAN_MOTION_DOT": 4.965e-05, "MEAN_MOTION_DDOT": 0}, "tle": {"line1": "1 38064U 93036BRW 25361.24269756  .00004965  00000+0  11074-2 0  9998", "line2": "2 38064  74.0229  96.6004 0046908 213.7250 146.0928 14.56424107720765"}}, "geometry": {"type": "Point", "coordinates": [104.18322945348066, 28.362106768087145]}}, {"type": "Feature", "properties": {"norad_id": 38067, "name": "COSMOS 2251 DEB", "group": "cosmos-2251-debris", "lat": -73.97114535761014, "lon": 159.3085699051796, "alt_km": 719.2562367257506, "timestamp": "2025-12-27T22:26:48.998503+00:00", "meta": {"OBJECT_NAME": "COSMOS 2251 DEB", "OBJECT_ID": "1993-036BRZ", "EPOCH": "2025-12-26T11:29:24.952992", "MEAN_MOTION": 14.61174653, "ECCENTRICITY": 0.0070045, "INCLINATION": 74.0162, "RA_OF_ASC_NODE": 248.2067, "ARG_OF_PERICENTER": 32.1655, "MEAN_ANOMALY": 141.0847, "EPHEMERIS_TYPE": 0, "CLASSIFICATION_TYPE": "U", "NORAD_CAT_ID": 38067, "ELEMENT_SET_NO": 999, "REV_AT_EPOCH": 62756, "BSTAR": 0.00033487, "MEAN_MOTION_DOT": 1.676e-05, "MEAN_MOTION_DDOT": 0}, "tle": {"line1": "1 38067U 93036BRZ 25360.47876103  .00001676  00000+0  33487-3 0  9994", "line2": "2 38067  74.0162 248.2067 0070045  32.1655 141.0847 14.61174653627562"}}, "geometry": {"type": "Point", "coordinates": [159.3085699051796, -73.97114535761014]}}, {"type": "Feature", "properties": {"norad_id": 38068, "name": "COSMOS 2251 DEB", "group": "cosmos-2251-debris", "lat": 70.21344451274696, "lon": 47.51950606512637, "alt_km": 766.7786140792396, "timestamp": "2025-12-27T22:26:48.998512+00:00", "meta": {"OBJECT_NAME": "COSMOS 2251 DEB", "OBJECT_ID": "1993-036BSA", "EPOCH": "2025-12-26T12:32:13.592256", "MEAN_MOTION": 14.36020492, "ECCENTRICITY": 0.0025088, "INCLINATION": 74.0217, "RA_OF_ASC_NODE": 282.905, "ARG_OF_PERICENTER": 7.3402, "MEAN_ANOMALY": 352.8113, "EPHEMERIS_TYPE": 0, "CLASSIFICATION_TYPE": "U", "NORAD_CAT_ID": 38068, "ELEMENT_SET_NO": 999, "REV_AT_EPOCH": 66844, "BSTAR": 0.00030529, "MEAN_MOTION_DOT": 8.64e-06, "MEAN_MOTION_DDOT": 0}, "tle": {"line1": "1 38068U 93036BSA 25360.52237954  .00000864  00000+0  30529-3 0  9998", "line2": "2 38068  74.0217 282.9050 0025088   7.3402 352.8113 14.36020492668445"}}, "geometry": {"type": "Point", "coordinates": [47.51950606512637, 70.21344451274696]}}, {"type": "Feature", "properties": {"norad_id": 38197, "name": "COSMOS 2251 DEB", "group": "cosmos-2251-debris", "lat": 26.013507558967973, "lon": -24.72557691086435, "alt_km": 731.5903509182835, "timestamp": "2025-12-27T22:26:48.998522+00:00", "meta": {"OBJECT_NAME": "COSMOS 2251 DEB", "OBJECT_ID": "1993-036BSM", "EPOCH": "2025-12-27T04:24:41.591808", "MEAN_MOTION": 14.74672965, "ECCENTRICITY": 0.01243, "INCLINATION": 73.938, "RA_OF_ASC_NODE": 328.668, "ARG_OF_PERICENTER": 202.6014, "MEAN_ANOMALY": 156.9659, "EPHEMERIS_TYPE": 0, "CLASSIFICATION_TYPE": "U", "NORAD_CAT_ID": 38197, "ELEMENT_SET_NO": 999, "REV_AT_EPOCH": 85968, "BSTAR": 0.0033283185, "MEAN_MOTION_DOT": 0.00025235, "MEAN_MOTION_DDOT": 0}, "tle": {"line1": "1 38197U 93036BSM 25361.18381472  .00025235  00000+0  33283-2 0  9997", "line2": "2 38197  73.9380 328.6680 0124300 202.6014 156.9659 14.74672965859686"}}, "geometry": {"type": "Point", "coordinates": [-24.72557691086435, 26.013507558967973]}}, {"type": "Feature", "properties": {"norad_id": 38199, "name": "COSMOS 2251 DEB", "group": "cosmos-2251-debris", "lat": -49.703264731452826, "lon": 17.38465394145379, "alt_km": 757.4855603141268, "timestamp": "2025-12-27T22:26:48.998532+00:00", "meta": {"OBJECT_NAME": "COSMOS 2251 DEB", "OBJECT_ID": "1993-036BSP", "EPOCH": "2025-12-26T11:30:15.579072", "MEAN_MOTION": 13.64814422, "ECCENTRICITY": 0.0370315, "INCLINATION": 73.9556, "RA_OF_ASC_NODE": 39.6133, "ARG_OF_PERICENTER": 323.3763, "MEAN_ANOMALY": 34.254, "EPHEMERIS_TYPE": 0, "CLASSIFICATION_TYPE": "U", "NORAD_CAT_ID": 38199, "ELEMENT_SET_NO": 999, "REV_AT_EPOCH": 61209, "BSTAR": 0.00067322, "MEAN_MOTION_DOT": 8.42e-06, "MEAN_MOTION_DDOT": 0}, "tle": {"line1": "1 38199U 93036BSP 25360.47934698  .00000842  00000+0  67322-3 0  9993", "line2": "2 38199  73.9556  39.6133 0370315 323.3763  34.2540 13.64814422612099"}}, "geometry": {"type": "Point", "coordinates": [17.38465394145379, -49.703264731452826]}}, {"type": "Feature", "properties": {"norad_id": 38208, "name": "COSMOS 2251 DEB", "group": "cosmos-2251-debris", "lat": 27.33221946241794, "lon": -139.7990442662711, "alt_km": 613.7172288560178, "timestamp": "2025-12-27T22:26:48.998542+00:00", "meta": {"OBJECT_NAME": "COSMOS 2251 DEB", "OBJECT_ID": "1993-036BSY", "EPOCH": "2025-12-26T10:15:20.422944", "MEAN_MOTION": 14.8437794, "ECCENTRICITY": 8.48e-05, "INCLINATION": 74.0044, "RA_OF_ASC_NODE": 51.7225, "ARG_OF_PERICENTER": 86.2803, "MEAN_ANOMALY": 290.0795, "EPHEMERIS_TYPE": 0, "CLASSIFICATION_TYPE": "U", "NORAD_CAT_ID": 38208, "ELEMENT_SET_NO": 999, "REV_AT_EPOCH": 71362, "BSTAR": 0.0021793, "MEAN_MOTION_DOT": 0.00018329, "MEAN_MOTION_DDOT": 0}, "tle": {"line1": "1 38208U 93036BSY 25360.42731971  .00018329  00000+0  21793-2 0  9998", "line2": "2 38208  74.0044  51.7225 0000848  86.2803 290.0795 14.84377940713629"}}, "geometry": {"type": "Point", "coordinates": [-139.7990442662711, 27.33221946241794]}}, {"type": "Feature", "properties": {"norad_id": 38212, "name": "COSMOS 2251 DEB", "group": "cosmos-2251-debris", "lat": 64.61849164371785, "lon": -170.25404108773293, "alt_km": 565.1877778742182, "timestamp": "2025-12-27T22:26:48.998552+00:00", "meta": {"OBJECT_NAME": "COSMOS 2251 DEB", "OBJECT_ID": "1993-036BTC", "EPOCH": "2025-12-19T04:21:29.490912", "MEAN_MOTION": 14.77722254, "ECCENTRICITY": 0.0092064, "INCLINATION": 74.0528, "RA_OF_ASC_NODE": 63.9673, "ARG_OF_PERICENTER": 129.0689, "MEAN_ANOMALY": 231.8724, "EPHEMERIS_TYPE": 0, "CLASSIFICATION_TYPE": "U", "NORAD_CAT_ID": 38212, "ELEMENT_SET_NO": 999, "REV_AT_EPOCH": 81405, "BSTAR": 0.00027193732, "MEAN_MOTION_DOT": 2.056e-05, "MEAN_MOTION_DDOT": 0}, "tle": {"line1": "1 38212U 93036BTC 25353.18159133  .00002056  00000+0  27194-3 0  9994", "line2": "2 38212  74.0528  63.9673 0092064 129.0689 231.8724 14.77722254814050"}}, "geometry": {"type": "Point", "coordinates": [-170.25404108773293, 64.61849164371785]}}]}